[
    {
        "Altitude(m)": 561284.2937774742,
        "Argument of Periapsis(deg)": 0.026491964442854003,
        "Eccentricity": 0.0,
        "Inclination(deg)": 53.0,
        "Latitude(deg)": -26.83626372041753,
        "Longitude(deg)": 144.53412256408996,
        "Mean Anomaly(deg)": -34.17902852968966,
        "RAAN(deg)": 269.96057347411204,
        "Satellite Name": "Starlink Shell 1 1205",
        "Satellite Number": 1205,
        "Semi-Major Axis(m)": 6931778.249405717,
        "Time(s)": 760
    },
    {
        "Altitude(m)": 561112.0646559519,
        "Argument of Periapsis(deg)": 0.02684054292236524,
        "Eccentricity": 0.0,
        "Inclination(deg)": 53.0,
        "Latitude(deg)": -26.370816556846812,
        "Longitude(deg)": 144.9625740399559,
        "Mean Anomaly(deg)": -33.55219732613302,
        "RAAN(deg)": 269.9600547040346,
        "Satellite Name": "Starlink Shell 1 1205",
        "Satellite Number": 1205,
        "Semi-Major Axis(m)": 6931778.249405717,
        "Time(s)": 770
    },
    {
        "Altitude(m)": 560940.5085187025,
        "Argument of Periapsis(deg)": 0.027189121401876473,
        "Eccentricity": 0.0,
        "Inclination(deg)": 53.0,
        "Latitude(deg)": -25.90379648102792,
        "Longitude(deg)": 145.38728821857208,
        "Mean Anomaly(deg)": -32.92536612257617,
        "RAAN(deg)": 269.95953593395717,
        "Satellite Name": "Starlink Shell 1 1205",
        "Satellite Number": 1205,
        "Semi-Major Axis(m)": 6931778.249405717,
        "Time(s)": 780
    },
    {
        "Altitude(m)": 560769.6880917478,
        "Argument of Periapsis(deg)": 0.02753769988138771,
        "Eccentricity": 0.0,
        "Inclination(deg)": 53.0,
        "Latitude(deg)": -25.435246423055354,
        "Longitude(deg)": 145.8083588800948,
        "Mean Anomaly(deg)": -32.298534919019474,
        "RAAN(deg)": 269.95901716387965,
        "Satellite Name": "Starlink Shell 1 1205",
        "Satellite Number": 1205,
        "Semi-Major Axis(m)": 6931778.249405717,
        "Time(s)": 790
    },
    {
        "Altitude(m)": 560599.6656252115,
        "Argument of Periapsis(deg)": 0.02788627836089895,
        "Eccentricity": 0.0,
        "Inclination(deg)": 53.0,
        "Latitude(deg)": -24.96520842503115,
        "Longitude(deg)": 146.2258780270108,
        "Mean Anomaly(deg)": -31.671703715462833,
        "RAAN(deg)": 269.95849839380213,
        "Satellite Name": "Starlink Shell 1 1205",
        "Satellite Number": 1205,
        "Semi-Major Axis(m)": 6931778.249405717,
        "Time(s)": 800
    },
    {
        "Altitude(m)": 560430.5028654367,
        "Argument of Periapsis(deg)": 0.02823485684041019,
        "Eccentricity": 0.0,
        "Inclination(deg)": 53.0,
        "Latitude(deg)": -24.49372366808787,
        "Longitude(deg)": 146.63993640025717,
        "Mean Anomaly(deg)": -31.04487251190608,
        "RAAN(deg)": 269.9579796237247,
        "Satellite Name": "Starlink Shell 1 1205",
        "Satellite Number": 1205,
        "Semi-Major Axis(m)": 6931778.249405717,
        "Time(s)": 810
    },
    {
        "Altitude(m)": 560262.2610272833,
        "Argument of Periapsis(deg)": 0.028583435319921423,
        "Eccentricity": 0.0,
        "Inclination(deg)": 53.0,
        "Latitude(deg)": -24.020832498895835,
        "Longitude(deg)": 147.05062399708157,
        "Mean Anomaly(deg)": -30.418041308349334,
        "RAAN(deg)": 269.95746085364726,
        "Satellite Name": "Starlink Shell 1 1205",
        "Satellite Number": 1205,
        "Semi-Major Axis(m)": 6931778.249405717,
        "Time(s)": 820
    },
    {
        "Altitude(m)": 560095.0007667033,
        "Argument of Periapsis(deg)": 0.028932013799432665,
        "Eccentricity": 0.0,
        "Inclination(deg)": 53.0,
        "Latitude(deg)": -23.546574455650344,
        "Longitude(deg)": 147.4580290776125,
        "Mean Anomaly(deg)": -29.791210104792643,
        "RAAN(deg)": 269.95694208356974,
        "Satellite Name": "Starlink Shell 1 1205",
        "Satellite Number": 1205,
        "Semi-Major Axis(m)": 6931778.249405717,
        "Time(s)": 830
    },
    {
        "Altitude(m)": 559928.7821535614,
        "Argument of Periapsis(deg)": 0.029280592278943897,
        "Eccentricity": 0.0,
        "Inclination(deg)": 53.0,
        "Latitude(deg)": -23.070988293541426,
        "Longitude(deg)": 147.86223868573575,
        "Mean Anomaly(deg)": -29.164378901236,
        "RAAN(deg)": 269.9564233134923,
        "Satellite Name": "Starlink Shell 1 1205",
        "Satellite Number": 1205,
        "Semi-Major Axis(m)": 6931778.249405717,
        "Time(s)": 840
    },
    {
        "Altitude(m)": 559763.6646447489,
        "Argument of Periapsis(deg)": 0.029629170758455132,
        "Eccentricity": 0.0,
        "Inclination(deg)": 53.0,
        "Latitude(deg)": -22.59411200970505,
        "Longitude(deg)": 148.26333917126746,
        "Mean Anomaly(deg)": -28.537547697679145,
        "RAAN(deg)": 269.9559045434148,
        "Satellite Name": "Starlink Shell 1 1205",
        "Satellite Number": 1205,
        "Semi-Major Axis(m)": 6931778.249405717,
        "Time(s)": 850
    },
    {
        "Altitude(m)": 559599.707057543,
        "Argument of Periapsis(deg)": 0.02997774923796637,
        "Eccentricity": 0.0,
        "Inclination(deg)": 53.0,
        "Latitude(deg)": -22.115982867656413,
        "Longitude(deg)": 148.661415032327,
        "Mean Anomaly(deg)": -27.910716494122454,
        "RAAN(deg)": 269.9553857733373,
        "Satellite Name": "Starlink Shell 1 1205",
        "Satellite Number": 1205,
        "Semi-Major Axis(m)": 6931778.249405717,
        "Time(s)": 860
    },
    {
        "Altitude(m)": 559436.9675433364,
        "Argument of Periapsis(deg)": 0.030326327717477602,
        "Eccentricity": 0.0,
        "Inclination(deg)": 53.0,
        "Latitude(deg)": -21.636637421211766,
        "Longitude(deg)": 149.05655028021624,
        "Mean Anomaly(deg)": -27.28388529056586,
        "RAAN(deg)": 269.9548670032599,
        "Satellite Name": "Starlink Shell 1 1205",
        "Satellite Number": 1205,
        "Semi-Major Axis(m)": 6931778.249405717,
        "Time(s)": 870
    },
    {
        "Altitude(m)": 559275.5035615969,
        "Argument of Periapsis(deg)": 0.030674906196988847,
        "Eccentricity": 0.0,
        "Inclination(deg)": 53.0,
        "Latitude(deg)": -21.1561115378998,
        "Longitude(deg)": 149.44882728378562,
        "Mean Anomaly(deg)": -26.65705408700906,
        "RAAN(deg)": 269.9543482331824,
        "Satellite Name": "Starlink Shell 1 1205",
        "Satellite Number": 1205,
        "Semi-Major Axis(m)": 6931778.249405717,
        "Time(s)": 880
    },
    {
        "Altitude(m)": 559115.3718542256,
        "Argument of Periapsis(deg)": 0.031023484676500086,
        "Eccentricity": 0.0,
        "Inclination(deg)": 53.0,
        "Latitude(deg)": -20.674440421872525,
        "Longitude(deg)": 149.83832729561067,
        "Mean Anomaly(deg)": -26.030222883452364,
        "RAAN(deg)": 269.9538294631049,
        "Satellite Name": "Starlink Shell 1 1205",
        "Satellite Number": 1205,
        "Semi-Major Axis(m)": 6931778.249405717,
        "Time(s)": 890
    },
    {
        "Altitude(m)": 558956.6284202212,
        "Argument of Periapsis(deg)": 0.03137206315601132,
        "Eccentricity": 0.0,
        "Inclination(deg)": 53.0,
        "Latitude(deg)": -20.191658636319413,
        "Longitude(deg)": 150.22513097891772,
        "Mean Anomaly(deg)": -25.40339167989567,
        "RAAN(deg)": 269.9533106930275,
        "Satellite Name": "Starlink Shell 1 1205",
        "Satellite Number": 1205,
        "Semi-Major Axis(m)": 6931778.249405717,
        "Time(s)": 900
    },
    {
        "Altitude(m)": 558799.3284907152,
        "Argument of Periapsis(deg)": 0.03172064163552255,
        "Eccentricity": 0.0,
        "Inclination(deg)": 53.0,
        "Latitude(deg)": -19.707800125391646,
        "Longitude(deg)": 150.60931742229698,
        "Mean Anomaly(deg)": -24.77656047633897,
        "RAAN(deg)": 269.95279192295,
        "Satellite Name": "Starlink Shell 1 1205",
        "Satellite Number": 1205,
        "Semi-Major Axis(m)": 6931778.249405717,
        "Time(s)": 910
    },
    {
        "Altitude(m)": 558643.5265043367,
        "Argument of Periapsis(deg)": 0.0320692201150338,
        "Eccentricity": 0.0,
        "Inclination(deg)": 53.0,
        "Latitude(deg)": -19.22289823564809,
        "Longitude(deg)": 150.99096466787282,
        "Mean Anomaly(deg)": -24.149729272782228,
        "RAAN(deg)": 269.95227315287246,
        "Satellite Name": "Starlink Shell 1 1205",
        "Satellite Number": 1205,
        "Semi-Major Axis(m)": 6931778.249405717,
        "Time(s)": 920
    },
    {
        "Altitude(m)": 558489.276083022,
        "Argument of Periapsis(deg)": 0.032417798594545036,
        "Eccentricity": 0.0,
        "Inclination(deg)": 53.0,
        "Latitude(deg)": -18.736985737030455,
        "Longitude(deg)": 151.37015023998322,
        "Mean Anomaly(deg)": -23.52289806922548,
        "RAAN(deg)": 269.951754382795,
        "Satellite Name": "Starlink Shell 1 1205",
        "Satellite Number": 1205,
        "Semi-Major Axis(m)": 6931778.249405717,
        "Time(s)": 930
    },
    {
        "Altitude(m)": 558336.6300081527,
        "Argument of Periapsis(deg)": 0.03276637707405627,
        "Eccentricity": 0.0,
        "Inclination(deg)": 53.0,
        "Latitude(deg)": -18.250094843374335,
        "Longitude(deg)": 151.74695016143053,
        "Mean Anomaly(deg)": -22.896066865668782,
        "RAAN(deg)": 269.95123561271754,
        "Satellite Name": "Starlink Shell 1 1205",
        "Satellite Number": 1205,
        "Semi-Major Axis(m)": 6931778.249405717,
        "Time(s)": 940
    }
]